start=new Date('2022-04-06T00:00:00.000Z').valueOf();
sats=[{"TLE_LINE1":"1 46358U 20062AK  22095.87179840 -.00002073  00000-0 -12030-3 0  9991","TLE_LINE2":"2 46358  53.0544 333.2656 0001785  46.3069 313.8067 15.06401711 88208","MEAN_MOTION_DDOT":"0.0000000000000","INCLINATION":"53.0544","RA_OF_ASC_NODE":"333.2656","EPOCH":"2022-04-05T20:55:23.381760","PERIAPSIS":"545.972","LAUNCH_DATE":"2020-09-03","NORAD_CAT_ID":"46358","OBJECT_TYPE":"PAYLOAD","MEAN_ELEMENT_THEORY":"SGP4","FILE":"3389912","COUNTRY_CODE":"US","APOAPSIS":"548.444","MEAN_MOTION":"15.06401711","GP_ID":"200542103","REF_FRAME":"TEME","PERIOD":"95.592","MEAN_ANOMALY":"313.8067","ARG_OF_PERICENTER":"46.3069","ECCENTRICITY":"0.00017850","SITE":"AFETR","SEMIMAJOR_AXIS":"6925.343","OBJECT_ID":"2020-062AK","DECAY_DATE":null,"OBJECT_NAME":"STARLINK-1690","MEAN_MOTION_DOT":"-0.00002073","TIME_SYSTEM":"UTC","RCS_SIZE":"LARGE","EPHEMERIS_TYPE":"0","REV_AT_EPOCH":"8820","CLASSIFICATION_TYPE":"U","BSTAR":"-0.00012030000000","ELEMENT_SET_NO":"999","CENTER_NAME":"EARTH"},{"EPOCH":"2022-04-05T20:26:52.021536","RA_OF_ASC_NODE":"288.3721","INCLINATION":"53.0542","TLE_LINE1":"1 46359U 20062AL  22095.85199099  .00001283  00000-0  10506-3 0  9994","TLE_LINE2":"2 46359  53.0542 288.3721 0001968  48.2761 311.8396 15.06398067 88823","MEAN_MOTION_DDOT":"0.0000000000000","COUNTRY_CODE":"US","FILE":"3389912","MEAN_ELEMENT_THEORY":"SGP4","APOAPSIS":"548.582","LAUNCH_DATE":"2020-09-03","PERIAPSIS":"545.857","OBJECT_TYPE":"PAYLOAD","NORAD_CAT_ID":"46359","SEMIMAJOR_AXIS":"6925.354","SITE":"AFETR","OBJECT_ID":"2020-062AL","ECCENTRICITY":"0.00019680","DECAY_DATE":null,"OBJECT_NAME":"STARLINK-1707","GP_ID":"200541351","MEAN_MOTION":"15.06398067","PERIOD":"95.592","MEAN_ANOMALY":"311.8396","ARG_OF_PERICENTER":"48.2761","REF_FRAME":"TEME","ELEMENT_SET_NO":"999","CENTER_NAME":"EARTH","BSTAR":"0.00010506000000","TIME_SYSTEM":"UTC","RCS_SIZE":"LARGE","MEAN_MOTION_DOT":"0.00001283","EPHEMERIS_TYPE":"0","REV_AT_EPOCH":"8882","CLASSIFICATION_TYPE":"U"},{"EPOCH":"2022-04-05T19:23:10.651488","RA_OF_ASC_NODE":"288.5704","INCLINATION":"53.0542","TLE_LINE2":"2 46360  53.0542 288.5704 0001641  53.4958 306.6182 15.06400656 89006","MEAN_MOTION_DDOT":"0.0000000000000","TLE_LINE1":"1 46360U 20062AM  22095.80776217  .00004240  00000-0  30336-3 0  9993","APOAPSIS":"548.348","COUNTRY_CODE":"US","MEAN_ELEMENT_THEORY":"SGP4","FILE":"3389627","OBJECT_TYPE":"PAYLOAD","NORAD_CAT_ID":"46360","PERIAPSIS":"546.075","LAUNCH_DATE":"2020-09-03","OBJECT_NAME":"STARLINK-1713","DECAY_DATE":null,"OBJECT_ID":"2020-062AM","SEMIMAJOR_AXIS":"6925.347","SITE":"AFETR","ECCENTRICITY":"0.00016410","PERIOD":"95.592","MEAN_ANOMALY":"306.6182","ARG_OF_PERICENTER":"53.4958","REF_FRAME":"TEME","GP_ID":"200516156","MEAN_MOTION":"15.06400656","CENTER_NAME":"EARTH","ELEMENT_SET_NO":"999","BSTAR":"0.00030336000000","CLASSIFICATION_TYPE":"U","EPHEMERIS_TYPE":"0","REV_AT_EPOCH":"8900","RCS_SIZE":"LARGE","TIME_SYSTEM":"UTC","MEAN_MOTION_DOT":"0.00004240"},{"BSTAR":"0.00006908600000","CENTER_NAME":"EARTH","ELEMENT_SET_NO":"999","CLASSIFICATION_TYPE":"U","EPHEMERIS_TYPE":"0","REV_AT_EPOCH":"8899","MEAN_MOTION_DOT":"0.00000747","RCS_SIZE":"LARGE","TIME_SYSTEM":"UTC","OBJECT_NAME":"STARLINK-1722","DECAY_DATE":null,"ECCENTRICITY":"0.00017480","OBJECT_ID":"2020-062AN","SEMIMAJOR_AXIS":"6925.378","SITE":"AFETR","REF_FRAME":"TEME","PERIOD":"95.593","ARG_OF_PERICENTER":"56.2148","MEAN_ANOMALY":"303.9007","MEAN_MOTION":"15.06390415","GP_ID":"200515766","APOAPSIS":"548.453","MEAN_ELEMENT_THEORY":"SGP4","FILE":"3389634","COUNTRY_CODE":"US","NORAD_CAT_ID":"46361","OBJECT_TYPE":"PAYLOAD","LAUNCH_DATE":"2020-09-03","PERIAPSIS":"546.032","RA_OF_ASC_NODE":"288.4133","EPOCH":"2022-04-05T20:16:15.475584","MEAN_MOTION_DDOT":"0.0000000000000","TLE_LINE2":"2 46361  53.0545 288.4133 0001748  56.2148 303.9007 15.06390415 88999","TLE_LINE1":"1 46361U 20062AN  22095.84462356  .00000747  00000-0  69086-4 0  9997","INCLINATION":"53.0545"},{"INCLINATION":"53.0558","TLE_LINE2":"2 46362  53.0558 288.1967 0001599  63.5583 296.5570 15.06397011 88838","MEAN_MOTION_DDOT":"0.0000000000000","TLE_LINE1":"1 46362U 20062AP  22095.88884311  .00001835  00000-0  14204-3 0  9991","EPOCH":"2022-04-05T21:19:56.044704","RA_OF_ASC_NODE":"288.1967","PERIAPSIS":"546.115","LAUNCH_DATE":"2020-09-03","OBJECT_TYPE":"PAYLOAD","NORAD_CAT_ID":"46362","COUNTRY_CODE":"US","FILE":"3389912","MEAN_ELEMENT_THEORY":"SGP4","APOAPSIS":"548.330","GP_ID":"200542603","MEAN_MOTION":"15.06397011","PERIOD":"95.592","MEAN_ANOMALY":"296.5570","ARG_OF_PERICENTER":"63.5583","REF_FRAME":"TEME","OBJECT_ID":"2020-062AP","SITE":"AFETR","SEMIMAJOR_AXIS":"6925.358","ECCENTRICITY":"0.00015990","OBJECT_NAME":"STARLINK-1726","DECAY_DATE":null,"RCS_SIZE":"LARGE","TIME_SYSTEM":"UTC","MEAN_MOTION_DOT":"0.00001835","CLASSIFICATION_TYPE":"U","REV_AT_EPOCH":"8883","EPHEMERIS_TYPE":"0","CENTER_NAME":"EARTH","ELEMENT_SET_NO":"999","BSTAR":"0.00014204000000"},{"RA_OF_ASC_NODE":"288.5208","EPOCH":"2022-04-05T19:33:46.747296","TLE_LINE2":"2 46363  53.0536 288.5208 0001664  54.5626 305.5518 15.06397428 88822","TLE_LINE1":"1 46363U 20062AQ  22095.81512439  .00001748  00000-0  13621-3 0  9999","MEAN_MOTION_DDOT":"0.0000000000000","INCLINATION":"53.0536","MEAN_ELEMENT_THEORY":"SGP4","FILE":"3389912","COUNTRY_CODE":"US","APOAPSIS":"548.374","LAUNCH_DATE":"2020-09-03","PERIAPSIS":"546.069","NORAD_CAT_ID":"46363","OBJECT_TYPE":"PAYLOAD","ECCENTRICITY":"0.00016640","SITE":"AFETR","SEMIMAJOR_AXIS":"6925.356","OBJECT_ID":"2020-062AQ","DECAY_DATE":null,"OBJECT_NAME":"STARLINK-1739","MEAN_MOTION":"15.06397428","GP_ID":"200540852","REF_FRAME":"TEME","MEAN_ANOMALY":"305.5518","PERIOD":"95.592","ARG_OF_PERICENTER":"54.5626","BSTAR":"0.00013621000000","ELEMENT_SET_NO":"999","CENTER_NAME":"EARTH","MEAN_MOTION_DOT":"0.00001748","TIME_SYSTEM":"UTC","RCS_SIZE":"LARGE","REV_AT_EPOCH":"8882","EPHEMERIS_TYPE":"0","CLASSIFICATION_TYPE":"U"},{"MEAN_MOTION":"15.06408367","GP_ID":"200541102","REF_FRAME":"TEME","MEAN_ANOMALY":"181.7415","PERIOD":"95.592","ARG_OF_PERICENTER":"178.3582","ECCENTRICITY":"0.00024730","OBJECT_ID":"2020-062AR","SEMIMAJOR_AXIS":"6925.323","SITE":"AFETR","OBJECT_NAME":"STARLINK-1763","DECAY_DATE":null,"MEAN_MOTION_DOT":"0.00003387","RCS_SIZE":"LARGE","TIME_SYSTEM":"UTC","CLASSIFICATION_TYPE":"U","REV_AT_EPOCH":"8910","EPHEMERIS_TYPE":"0","BSTAR":"0.00024615000000","CENTER_NAME":"EARTH","ELEMENT_SET_NO":"999","MEAN_MOTION_DDOT":"0.0000000000000","TLE_LINE2":"2 46364  53.0486 268.4753 0002473 178.3582 181.7415 15.06408367 89101","TLE_LINE1":"1 46364U 20062AR  22095.83813959  .00003387  00000-0  24615-3 0  9999","INCLINATION":"53.0486","RA_OF_ASC_NODE":"268.4753","EPOCH":"2022-04-05T20:06:55.260576","PERIAPSIS":"545.475","LAUNCH_DATE":"2020-09-03","NORAD_CAT_ID":"46364","OBJECT_TYPE":"PAYLOAD","FILE":"3389912","MEAN_ELEMENT_THEORY":"SGP4","COUNTRY_CODE":"US","APOAPSIS":"548.901"},{"EPHEMERIS_TYPE":"0","REV_AT_EPOCH":"8882","CLASSIFICATION_TYPE":"U","TIME_SYSTEM":"UTC","RCS_SIZE":"LARGE","MEAN_MOTION_DOT":"0.00005850","ELEMENT_SET_NO":"999","CENTER_NAME":"EARTH","BSTAR":"0.00041124000000","PERIOD":"95.592","MEAN_ANOMALY":"303.0369","ARG_OF_PERICENTER":"57.0769","REF_FRAME":"TEME","GP_ID":"200542353","MEAN_MOTION":"15.06407803","DECAY_DATE":null,"OBJECT_NAME":"STARLINK-1550","SITE":"AFETR","SEMIMAJOR_AXIS":"6925.325","OBJECT_ID":"2020-062AS","ECCENTRICITY":"0.00015480","OBJECT_TYPE":"PAYLOAD","NORAD_CAT_ID":"46365","PERIAPSIS":"546.118","LAUNCH_DATE":"2020-09-03","APOAPSIS":"548.262","COUNTRY_CODE":"US","FILE":"3389912","MEAN_ELEMENT_THEORY":"SGP4","INCLINATION":"53.0536","TLE_LINE1":"1 46365U 20062AS  22095.85936591  .00005850  00000-0  41124-3 0  9991","TLE_LINE2":"2 46365  53.0536 288.3267 0001548  57.0769 303.0369 15.06407803 88820","MEAN_MOTION_DDOT":"0.0000000000000","EPOCH":"2022-04-05T20:37:29.214624","RA_OF_ASC_NODE":"288.3267"},{"PERIOD":"95.593","MEAN_ANOMALY":"287.4986","ARG_OF_PERICENTER":"72.6159","REF_FRAME":"TEME","GP_ID":"200542104","MEAN_MOTION":"15.06386898","OBJECT_NAME":"STARLINK-1651","DECAY_DATE":null,"OBJECT_ID":"2020-062AT","SEMIMAJOR_AXIS":"6925.389","SITE":"AFETR","ECCENTRICITY":"0.00014270","CLASSIFICATION_TYPE":"U","REV_AT_EPOCH":"8881","EPHEMERIS_TYPE":"0","RCS_SIZE":"LARGE","TIME_SYSTEM":"UTC","MEAN_MOTION_DOT":"0.00000897","CENTER_NAME":"EARTH","ELEMENT_SET_NO":"999","BSTAR":"0.00007912800000","INCLINATION":"53.0553","TLE_LINE2":"2 46366  53.0553 288.6803 0001427  72.6159 287.4986 15.06386898 88810","TLE_LINE1":"1 46366U 20062AT  22095.78196546  .00000897  00000-0  79128-4 0  9994","MEAN_MOTION_DDOT":"0.0000000000000","EPOCH":"2022-04-05T18:46:01.815744","RA_OF_ASC_NODE":"288.6803","OBJECT_TYPE":"PAYLOAD","NORAD_CAT_ID":"46366","LAUNCH_DATE":"2020-09-03","PERIAPSIS":"546.265","APOAPSIS":"548.242","COUNTRY_CODE":"US","FILE":"3389912","MEAN_ELEMENT_THEORY":"SGP4"},{"PERIOD":"95.592","MEAN_ANOMALY":"298.7343","ARG_OF_PERICENTER":"61.3813","REF_FRAME":"TEME","GP_ID":"200541352","MEAN_MOTION":"15.06404797","OBJECT_NAME":"STARLINK-1658","DECAY_DATE":null,"OBJECT_ID":"2020-062AV","SITE":"AFETR","SEMIMAJOR_AXIS":"6925.334","ECCENTRICITY":"0.00016670","CLASSIFICATION_TYPE":"U","REV_AT_EPOCH":"8849","EPHEMERIS_TYPE":"0","RCS_SIZE":"LARGE","TIME_SYSTEM":"UTC","MEAN_MOTION_DOT":"-0.00000357","CENTER_NAME":"EARTH","ELEMENT_SET_NO":"999","BSTAR":"-0.00000507710000","INCLINATION":"53.0533","TLE_LINE1":"1 46368U 20062AV  22095.91418945 -.00000357  00000-0 -50771-5 0  9998","TLE_LINE2":"2 46368  53.0533 313.0888 0001667  61.3813 298.7343 15.06404797 88499","MEAN_MOTION_DDOT":"0.0000000000000","EPOCH":"2022-04-05T21:56:25.968480","RA_OF_ASC_NODE":"313.0888","OBJECT_TYPE":"PAYLOAD","NORAD_CAT_ID":"46368","PERIAPSIS":"546.044","LAUNCH_DATE":"2020-09-03","APOAPSIS":"548.353","COUNTRY_CODE":"US","MEAN_ELEMENT_THEORY":"SGP4","FILE":"3389912"}];
